{
  "type": "FeatureCollection",
  "features": [
    {
      "type": "Feature",
      "properties": {
        "norad_id": 30701,
        "name": "FENGYUN 1C DEB",
        "group": "fengyun-1c-debris",
        "lat": 15.596075087445428,
        "lon": -151.70897911753676,
        "alt_km": 831.8527534868335,
        "timestamp": "2025-12-10T11:33:53.663441+00:00",
        "meta_object_name": "FENGYUN 1C DEB",
        "meta_object_id": "1999-025ARK",
        "meta_epoch": "2025-12-09T01:07:54.705216",
        "meta_mean_motion": 14.13934084,
        "meta_eccentricity": 0.00356661,
        "meta_inclination": 98.7188,
        "meta_ra_of_asc_node": 24.4368,
        "meta_arg_of_pericenter": 112.9748,
        "meta_mean_anomaly": 311.9788,
        "meta_ephemeris_type": 0,
        "meta_classification_type": "U",
        "meta_norad_cat_id": 30701,
        "meta_element_set_no": 999,
        "meta_rev_at_epoch": 97067,
        "meta_bstar": 2.3504557e-05,
        "meta_mean_motion_dot": 2e-08,
        "meta_mean_motion_ddot": 0,
        "tle_line1": "1 30701U 99025ARK 25343.04716094  .00000002  00000+0  23505-4 0  9994",
        "tle_line2": "2 30701  98.7188  24.4368 0035666 112.9748 311.9788 14.13934084970672"
      },
      "geometry": {
        "type": "Point",
        "coordinates": [
          -151.70897911753676,
          15.596075087445428
        ]
      }
    },
    {
      "type": "Feature",
      "properties": {
        "norad_id": 30702,
        "name": "FENGYUN 1C DEB",
        "group": "fengyun-1c-debris",
        "lat": -10.488621410162802,
        "lon": -177.23536333524547,
        "alt_km": 908.474473520675,
        "timestamp": "2025-12-10T11:33:53.663451+00:00",
        "meta_object_name": "FENGYUN 1C DEB",
        "meta_object_id": "1999-025ARL",
        "meta_epoch": "2025-12-10T00:31:35.463072",
        "meta_mean_motion": 14.03581922,
        "meta_eccentricity": 0.0068475,
        "meta_inclination": 98.7696,
        "meta_ra_of_asc_node": 3.9587,
        "meta_arg_of_pericenter": 309.5696,
        "meta_mean_anomaly": 78.9174,
        "meta_ephemeris_type": 0,
        "meta_classification_type": "U",
        "meta_norad_cat_id": 30702,
        "meta_element_set_no": 999,
        "meta_rev_at_epoch": 96124,
        "meta_bstar": 0.00098272,
        "meta_mean_motion_dot": 1.531e-05,
        "meta_mean_motion_ddot": 0,
        "tle_line1": "1 30702U 99025ARL 25344.02193823  .00001531  00000+0  98272-3 0  9993",
        "tle_line2": "2 30702  98.7696   3.9587 0068475 309.5696  78.9174 14.03581922961242"
      },
      "geometry": {
        "type": "Point",
        "coordinates": [
          -177.23536333524547,
          -10.488621410162802
        ]
      }
    },
    {
      "type": "Feature",
      "properties": {
        "norad_id": 30703,
        "name": "FENGYUN 1C DEB",
        "group": "fengyun-1c-debris",
        "lat": 15.608158418684248,
        "lon": 152.01672639019625,
        "alt_km": 887.3066282556656,
        "timestamp": "2025-12-10T11:33:53.663461+00:00",
        "meta_object_name": "FENGYUN 1C DEB",
        "meta_object_id": "1999-025ARM",
        "meta_epoch": "2025-12-09T11:42:09.722592",
        "meta_mean_motion": 14.19299158,
        "meta_eccentricity": 0.0117888,
        "meta_inclination": 99.1419,
        "meta_ra_of_asc_node": 328.4128,
        "meta_arg_of_pericenter": 301.32,
        "meta_mean_anomaly": 186.3927,
        "meta_ephemeris_type": 0,
        "meta_classification_type": "U",
        "meta_norad_cat_id": 30703,
        "meta_element_set_no": 999,
        "meta_rev_at_epoch": 96494,
        "meta_bstar": 0.0021336127,
        "meta_mean_motion_dot": 4.754e-05,
        "meta_mean_motion_ddot": 0,
        "tle_line1": "1 30703U 99025ARM 25343.48761253  .00004754  00000+0  21336-2 0  9997",
        "tle_line2": "2 30703  99.1419 328.4128 0117888 301.3200 186.3927 14.19299158964945"
      },
      "geometry": {
        "type": "Point",
        "coordinates": [
          152.01672639019625,
          15.608158418684248
        ]
      }
    },
    {
      "type": "Feature",
      "properties": {
        "norad_id": 30704,
        "name": "FENGYUN 1C DEB",
        "group": "fengyun-1c-debris",
        "lat": -66.92072098423182,
        "lon": 141.78085467263506,
        "alt_km": 940.8388378449336,
        "timestamp": "2025-12-10T11:33:53.663471+00:00",
        "meta_object_name": "FENGYUN 1C DEB",
        "meta_object_id": "1999-025ARN",
        "meta_epoch": "2025-12-09T11:08:20.572800",
        "meta_mean_motion": 14.02041688,
        "meta_eccentricity": 0.00816854,
        "meta_inclination": 98.8715,
        "meta_ra_of_asc_node": 342.2927,
        "meta_arg_of_pericenter": 108.9017,
        "meta_mean_anomaly": 45.0067,
        "meta_ephemeris_type": 0,
        "meta_classification_type": "U",
        "meta_norad_cat_id": 30704,
        "meta_element_set_no": 999,
        "meta_rev_at_epoch": 96065,
        "meta_bstar": 0.0006290131,
        "meta_mean_motion_dot": 9.46e-06,
        "meta_mean_motion_ddot": 0,
        "tle_line1": "1 30704U 99025ARN 25343.46412700  .00000946  00000+0  62901-3 0  9999",
        "tle_line2": "2 30704  98.8715 342.2927 0081685 108.9017  45.0067 14.02041688960659"
      },
      "geometry": {
        "type": "Point",
        "coordinates": [
          141.78085467263506,
          -66.92072098423182
        ]
      }
    },
    {
      "type": "Feature",
      "properties": {
        "norad_id": 30705,
        "name": "FENGYUN 1C DEB",
        "group": "fengyun-1c-debris",
        "lat": 65.95111219390827,
        "lon": -63.04598078336784,
        "alt_km": 1098.771386257541,
        "timestamp": "2025-12-10T11:33:53.663482+00:00",
        "meta_object_name": "FENGYUN 1C DEB",
        "meta_object_id": "1999-025ARP",
        "meta_epoch": "2025-12-09T12:29:54.047616",
        "meta_mean_motion": 13.8129493,
        "meta_eccentricity": 0.01994575,
        "meta_inclination": 102.1804,
        "meta_ra_of_asc_node": 86.7709,
        "meta_arg_of_pericenter": 289.777,
        "meta_mean_anomaly": 84.2234,
        "meta_ephemeris_type": 0,
        "meta_classification_type": "U",
        "meta_norad_cat_id": 30705,
        "meta_element_set_no": 999,
        "meta_rev_at_epoch": 93965,
        "meta_bstar": 0.0035181472,
        "meta_mean_motion_dot": 4.278e-05,
        "meta_mean_motion_ddot": 0,
        "tle_line1": "1 30705U 99025ARP 25343.52076444  .00004278  00000+0  35181-2 0  9999",
        "tle_line2": "2 30705 102.1804  86.7709 0199457 289.7770  84.2234 13.81294930939650"
      },
      "geometry": {
        "type": "Point",
        "coordinates": [
          -63.04598078336784,
          65.95111219390827
        ]
      }
    },
    {
      "type": "Feature",
      "properties": {
        "norad_id": 30706,
        "name": "FENGYUN 1C DEB",
        "group": "fengyun-1c-debris",
        "lat": 42.710274175027635,
        "lon": -129.46484891039728,
        "alt_km": 800.6023811767782,
        "timestamp": "2025-12-10T11:33:53.663492+00:00",
        "meta_object_name": "FENGYUN 1C DEB",
        "meta_object_id": "1999-025ARQ",
        "meta_epoch": "2025-12-08T15:35:27.222432",
        "meta_mean_motion": 14.26401079,
        "meta_eccentricity": 0.00262807,
        "meta_inclination": 99.0647,
        "meta_ra_of_asc_node": 237.1139,
        "meta_arg_of_pericenter": 140.1943,
        "meta_mean_anomaly": 220.117,
        "meta_ephemeris_type": 0,
        "meta_classification_type": "U",
        "meta_norad_cat_id": 30706,
        "meta_element_set_no": 999,
        "meta_rev_at_epoch": 97569,
        "meta_bstar": 0.0014795014,
        "meta_mean_motion_dot": 3.525e-05,
        "meta_mean_motion_ddot": 0,
        "tle_line1": "1 30706U 99025ARQ 25342.64962063  .00003525  00000+0  14795-2 0  9995",
        "tle_line2": "2 30706  99.0647 237.1139 0026280 140.1943 220.1170 14.26401079975692"
      },
      "geometry": {
        "type": "Point",
        "coordinates": [
          -129.46484891039728,
          42.710274175027635
        ]
      }
    },
    {
      "type": "Feature",
      "properties": {
        "norad_id": 30707,
        "name": "FENGYUN 1C DEB",
        "group": "fengyun-1c-debris",
        "lat": -80.23068590265713,
        "lon": 113.14688132691198,
        "alt_km": 829.5218209575451,
        "timestamp": "2025-12-10T11:33:53.663502+00:00",
        "meta_object_name": "FENGYUN 1C DEB",
        "meta_object_id": "1999-025ARR",
        "meta_epoch": "2025-12-09T21:05:06.930816",
        "meta_mean_motion": 14.26654022,
        "meta_eccentricity": 0.0027988,
        "meta_inclination": 99.4127,
        "meta_ra_of_asc_node": 38.0403,
        "meta_arg_of_pericenter": 78.1618,
        "meta_mean_anomaly": 337.6349,
        "meta_ephemeris_type": 0,
        "meta_classification_type": "U",
        "meta_norad_cat_id": 30707,
        "meta_element_set_no": 999,
        "meta_rev_at_epoch": 96762,
        "meta_bstar": 0.0020353,
        "meta_mean_motion_dot": 4.892e-05,
        "meta_mean_motion_ddot": 0,
        "tle_line1": "1 30707U 99025ARR 25343.87855244  .00004892  00000+0  20353-2 0  9999",
        "tle_line2": "2 30707  99.4127  38.0403 0027988  78.1618 337.6349 14.26654022967621"
      },
      "geometry": {
        "type": "Point",
        "coordinates": [
          113.14688132691198,
          -80.23068590265713
        ]
      }
    }
  ]
}